[
    {
        "CCSDS_OMM_VERS": "3.0",
        "COMMENT": "GENERATED VIA SPACE-TRACK.ORG API",
        "CREATION_DATE": "2025-03-01T17:52:32",
        "ORIGINATOR": "18 SPCS",
        "OBJECT_NAME": "NAVSTAR 79 (USA 304)",
        "OBJECT_ID": "2020-041A",
        "CENTER_NAME": "EARTH",
        "REF_FRAME": "TEME",
        "TIME_SYSTEM": "UTC",
        "MEAN_ELEMENT_THEORY": "SGP4",
        "EPOCH": "2025-03-01T01:46:38.687232",
        "MEAN_MOTION": "2.00568104",
        "ECCENTRICITY": "0.00510970",
        "INCLINATION": "56.3356",
        "RA_OF_ASC_NODE": "47.3593",
        "ARG_OF_PERICENTER": "199.6348",
        "MEAN_ANOMALY": "157.1427",
        "EPHEMERIS_TYPE": "0",
        "CLASSIFICATION_TYPE": "U",
        "NORAD_CAT_ID": "45854",
        "ELEMENT_SET_NO": "999",
        "REV_AT_EPOCH": "3454",
        "BSTAR": "0.00000000000000",
        "MEAN_MOTION_DOT": "-0.00000027",
        "MEAN_MOTION_DDOT": "0.0000000000000",
        "SEMIMAJOR_AXIS": "26559.951",
        "PERIOD": "717.961",
        "APOAPSIS": "20317.529",
        "PERIAPSIS": "20046.102",
        "OBJECT_TYPE": "PAYLOAD",
        "RCS_SIZE": "LARGE",
        "COUNTRY_CODE": "US",
        "LAUNCH_DATE": "2020-06-30",
        "SITE": "AFETR",
        "DECAY_DATE": null,
        "FILE": "4656182",
        "GP_ID": "282005283",
        "TLE_LINE0": "0 NAVSTAR 79 (USA 304)",
        "TLE_LINE1": "1 45854U 20041A   25060.07405888 -.00000027  00000-0  00000-0 0  9996",
        "TLE_LINE2": "2 45854  56.3356  47.3593 0051097 199.6348 157.1427  2.00568104 34548"
    }
]